1 25118U 97084G   19273.36485887 +.00000085 +00000-0 +73075-4 0  9995
2 25118 045.0159 224.4856 0002418 244.9903 252.5320 14.38957994140564
1 25118U 97084G   19274.12538098  .00000093  00000-0  75736-4 0  9998
2 25118  45.0160 220.8750 0002433 247.4947 233.5450 14.38958372140690
1 25118U 97084G   19274.87242528 +.00000109 +00000-0 +80968-4 0  9991
2 25118 045.0160 217.3284 0002433 250.0168 144.6550 14.38958769140781
1 25118U 97084G   19275.24065681  .00000118  00000-0  83937-4 0  9995
2 25118  45.0161 215.5804 0002437 251.2358 252.8192 14.38958993140860
1 25118U 97084G   19275.31444206 +.00000120 +00000-0 +84426-4 0  9994
2 25118 045.0160 215.2301 0002433 251.4718 275.1804 14.38959036140841
1 25118U 97084G   19276.28556727  .00000143  00000-0  91717-4 0  9999
2 25118  45.0161 210.6198 0002433 254.6593 267.5500 14.38959656141017
1 25118U 97084G   19276.88809762 +.00000148 +00000-0 +93425-4 0  9998
2 25118 045.0162 207.7593 0002440 256.5284 149.9712 14.38960038141070
1 25118U 97084G   19277.32337307  .00000149  00000-0  93724-4 0  9992
2 25118  45.0162 205.6929 0002430 257.9731 245.5534 14.38960320141160
1 25118U 97084G   19277.85950684 +.00000147 +00000-0 +93127-4 0  9994
2 25118 045.0162 203.1476 0002435 259.5126 144.0206 14.38960658141210
1 25118U 97084G   19278.83085920  .00000140  00000-0  90741-4 0  9997
2 25118  45.0163 198.5363 0002429 262.4782 137.7956 14.38961241141374
1 25118U 97084G   19279.80218270 +.00000136 +00000-0 +89709-4 0  9998
2 25118 045.0163 193.9251 0002415 265.4431 131.4231 14.38961788141494
1 25118U 97084G   19280.17040906  .00000141  00000-0  91343-4 0  9992
2 25118  45.0163 192.1771 0002406 266.6082 239.6183 14.38962026141579
1 25118U 97084G   19280.84575940 +.00000142 +00000-0 +91428-4 0  9992
2 25118 045.0163 188.9710 0002397 268.6402 139.4742 14.38962402141646
1 25118U 97084G   19281.20893411  .00000141  00000-0  91219-4 0  9996
2 25118  45.0162 187.2469 0002384 269.7881 221.4929 14.38962579141719
1 25118U 97084G   19281.81773885 +.00000141 +00000-0 +91065-4 0  9994
2 25118 045.0162 184.3567 0002375 271.5328 136.5791 14.38962913141785
1 25118U 97084G   19282.78920988  .00000131  00000-0  88081-4 0  9992
2 25118  45.0161 179.7447 0002351 274.4699 131.0052 14.38963405141941
1 25118U 97084G   19283.90238539 +.00000132 +00000-0 +88330-4 0  9999
2 25118 045.0160 174.4601 0002311 277.7426 139.8777 14.38964057142084
1 25118U 97084G   19284.12888944  .00000139  00000-0  90587-4 0  9999
2 25118  45.0160 173.3848 0002296 278.4461 233.6653 14.38964221142140
1 25118U 97084G   19284.73192706 +.00000144 +00000-0 +92232-4 0  9995
2 25118 045.0160 170.5218 0002279 280.1406 118.9010 14.38964577142203
